{"type": "FeatureCollection", "features": [ {"type": "Feature", "properties": {"norad_id": 34875, "name": "COSMOS 2251 DEB", "group": "cosmos-2251-debris", "lat": 54.10825881933378, "lon": 165.12882485438584, "alt_km": 733.8601704668163, "timestamp": "2025-12-21T11:31:43.254833+00:00", "meta": {"OBJECT_NAME": "COSMOS 2251 DEB", "OBJECT_ID": "1993-036ACN", "EPOCH": "2025-12-19T11:28:39.014112", "MEAN_MOTION": 14.48947014, "ECCENTRICITY": 0.0016196, "INCLINATION": 74.0433, "RA_OF_ASC_NODE": 145.5897, "ARG_OF_PERICENTER": 268.763, "MEAN_ANOMALY": 149.3216, "EPHEMERIS_TYPE": 0, "CLASSIFICATION_TYPE": "U", "NORAD_CAT_ID": 34875, "ELEMENT_SET_NO": 999, "REV_AT_EPOCH": 87853, "BSTAR": 0.00033791, "MEAN_MOTION_DOT": 1.255e-05, "MEAN_MOTION_DDOT": 0}, "tle": {"line1": "1 34875U 93036ACN 25353.47822933  .00001255  00000+0  33791-3 0  9992", "line2": "2 34875  74.0433 145.5897 0016196 268.7630 149.3216 14.48947014878533"}}, "geometry": {"type": "Point", "coordinates": [165.12882485438584, 54.10825881933378]}}, {"type": "Feature", "properties": {"norad_id": 34878, "name": "COSMOS 2251 DEB", "group": "cosmos-2251-debris", "lat": 40.53629877486307, "lon": -160.77944737339374, "alt_km": 1252.6758367434022, "timestamp": "2025-12-21T11:31:43.254844+00:00", "meta": {"OBJECT_NAME": "COSMOS 2251 DEB", "OBJECT_ID": "1993-036ACR", "EPOCH": "2025-12-20T02:51:54.266112", "MEAN_MOTION": 13.44200085, "ECCENTRICITY": 0.04356019, "INCLINATION": 73.965, "RA_OF_ASC_NODE": 35.6157, "ARG_OF_PERICENTER": 17.6827, "MEAN_ANOMALY": 11.8411, "EPHEMERIS_TYPE": 0, "CLASSIFICATION_TYPE": "U", "NORAD_CAT_ID": 34878, "ELEMENT_SET_NO": 999, "REV_AT_EPOCH": 81372, "BSTAR": 0.00054186737, "MEAN_MOTION_DOT": 5.36e-06, "MEAN_MOTION_DDOT": 0}, "tle": {"line1": "1 34878U 93036ACR 25354.11937808  .00000536  00000+0  54187-3 0  9998", "line2": "2 34878  73.9650  35.6157 0435601  17.6827  11.8411 13.44200085813723"}}, "geometry": {"type": "Point", "coordinates": [-160.77944737339374, 40.53629877486307]}}, {"type": "Feature", "properties": {"norad_id": 34882, "name": "COSMOS 2251 DEB", "group": "cosmos-2251-debris", "lat": 37.77993859964233, "lon": -138.30831884038014, "alt_km": 660.5083305918588, "timestamp": "2025-12-21T11:31:43.254854+00:00", "meta": {"OBJECT_NAME": "COSMOS 2251 DEB", "OBJECT_ID": "1993-036ACV", "EPOCH": "2025-12-20T00:51:13.406976", "MEAN_MOTION": 14.61609371, "ECCENTRICITY": 0.00831704, "INCLINATION": 74.0454, "RA_OF_ASC_NODE": 211.6418, "ARG_OF_PERICENTER": 336.8506, "MEAN_ANOMALY": 22.892, "EPHEMERIS_TYPE": 0, "CLASSIFICATION_TYPE": "U", "NORAD_CAT_ID": 34882, "ELEMENT_SET_NO": 999, "REV_AT_EPOCH": 88631, "BSTAR": 9.3819034e-05, "MEAN_MOTION_DOT": 4.56e-06, "MEAN_MOTION_DDOT": 0}, "tle": {"line1": "1 34882U 93036ACV 25354.03557184  .00000456  00000+0  93819-4 0  9996", "line2": "2 34882  74.0454 211.6418 0083170 336.8506  22.8920 14.61609371886311"}}, "geometry": {"type": "Point", "coordinates": [-138.30831884038014, 37.77993859964233]}}, {"type": "Feature", "properties": {"norad_id": 34883, "name": "COSMOS 2251 DEB", "group": "cosmos-2251-debris", "lat": 46.07345741447007, "lon": -150.66618265278203, "alt_km": 725.0081010226322, "timestamp": "2025-12-21T11:31:43.254864+00:00", "meta": {"OBJECT_NAME": "COSMOS 2251 DEB", "OBJECT_ID": "1993-036ACW", "EPOCH": "2025-12-18T13:27:07.209504", "MEAN_MOTION": 14.51672805, "ECCENTRICITY": 0.00951028, "INCLINATION": 74.2022, "RA_OF_ASC_NODE": 51.868, "ARG_OF_PERICENTER": 236.3156, "MEAN_ANOMALY": 122.8912, "EPHEMERIS_TYPE": 0, "CLASSIFICATION_TYPE": "U", "NORAD_CAT_ID": 34883, "ELEMENT_SET_NO": 999, "REV_AT_EPOCH": 86524, "BSTAR": 0.0028915699, "MEAN_MOTION_DOT": 0.00012297, "MEAN_MOTION_DDOT": 0}, "tle": {"line1": "1 34883U 93036ACW 25352.56050011  .00012297  00000+0  28916-2 0  9990", "line2": "2 34883  74.2022  51.8680 0095102 236.3156 122.8912 14.51672805865245"}}, "geometry": {"type": "Point", "coordinates": [-150.66618265278203, 46.07345741447007]}}, {"type": "Feature", "properties": {"norad_id": 34884, "name": "COSMOS 2251 DEB", "group": "cosmos-2251-debris", "lat": -20.312570266845697, "lon": -134.68378621496092, "alt_km": 603.329459483688, "timestamp": "2025-12-21T11:31:43.254875+00:00", "meta": {"OBJECT_NAME": "COSMOS 2251 DEB", "OBJECT_ID": "1993-036ACX", "EPOCH": "2025-12-21T04:28:30.554400", "MEAN_MOTION": 14.90404784, "ECCENTRICITY": 0.0002754, "INCLINATION": 74.017, "RA_OF_ASC_NODE": 39.8148, "ARG_OF_PERICENTER": 43.1386, "MEAN_ANOMALY": 21.6739, "EPHEMERIS_TYPE": 0, "CLASSIFICATION_TYPE": "U", "NORAD_CAT_ID": 34884, "ELEMENT_SET_NO": 999, "REV_AT_EPOCH": 87931, "BSTAR": 0.001453, "MEAN_MOTION_DOT": 0.0001415, "MEAN_MOTION_DDOT": 0}, "tle": {"line1": "1 34884U 93036ACX 25355.18646475  .00014150  00000+0  14530-2 0  9994", "line2": "2 34884  74.0170  39.8148 0002754  43.1386  21.6739 14.90404784879311"}}, "geometry": {"type": "Point", "coordinates": [-134.68378621496092, -20.312570266845697]}}, {"type": "Feature", "properties": {"norad_id": 34885, "name": "COSMOS 2251 DEB", "group": "cosmos-2251-debris", "lat": -48.099705813776, "lon": 147.95179153437414, "alt_km": 721.340253084858, "timestamp": "2025-12-21T11:31:43.254885+00:00", "meta": {"OBJECT_NAME": "COSMOS 2251 DEB", "OBJECT_ID": "1993-036ACY", "EPOCH": "2025-12-20T21:27:48.737376", "MEAN_MOTION": 14.51541115, "ECCENTRICITY": 0.0015083, "INCLINATION": 74.0298, "RA_OF_ASC_NODE": 167.6672, "ARG_OF_PERICENTER": 253.0323, "MEAN_ANOMALY": 234.9925, "EPHEMERIS_TYPE": 0, "CLASSIFICATION_TYPE": "U", "NORAD_CAT_ID": 34885, "ELEMENT_SET_NO": 999, "REV_AT_EPOCH": 87597, "BSTAR": 0.00047903, "MEAN_MOTION_DOT": 1.892e-05, "MEAN_MOTION_DDOT": 0}, "tle": {"line1": "1 34885U 93036ACY 25354.89431409  .00001892  00000+0  47903-3 0  9991", "line2": "2 34885  74.0298 167.6672 0015083 253.0323 234.9925 14.51541115875978"}}, "geometry": {"type": "Point", "coordinates": [147.95179153437414, -48.099705813776]}}, {"type": "Feature", "properties": {"norad_id": 34886, "name": "COSMOS 2251 DEB", "group": "cosmos-2251-debris", "lat": -73.920896425849, "lon": 69.19112022800523, "alt_km": 448.38919964973957, "timestamp": "2025-12-21T11:31:43.254895+00:00", "meta": {"OBJECT_NAME": "COSMOS 2251 DEB", "OBJECT_ID": "1993-036ACZ", "EPOCH": "2025-12-19T05:20:10.106016", "MEAN_MOTION": 15.39455892, "ECCENTRICITY": 0.0031395, "INCLINATION": 73.9504, "RA_OF_ASC_NODE": 166.9286, "ARG_OF_PERICENTER": 349.772, "MEAN_ANOMALY": 10.2844, "EPHEMERIS_TYPE": 0, "CLASSIFICATION_TYPE": "U", "NORAD_CAT_ID": 34886, "ELEMENT_SET_NO": 999, "REV_AT_EPOCH": 63098, "BSTAR": 0.0012728, "MEAN_MOTION_DOT": 0.00051055, "MEAN_MOTION_DDOT": 0}, "tle": {"line1": "1 34886U 93036ACZ 25353.22233919  .00051055  00000+0  12728-2 0  9996", "line2": "2 34886  73.9504 166.9286 0031395 349.7720  10.2844 15.39455892630986"}}, "geometry": {"type": "Point", "coordinates": [69.19112022800523, -73.920896425849]}}, {"type": "Feature", "properties": {"norad_id": 34907, "name": "COSMOS 2251 DEB", "group": "cosmos-2251-debris", "lat": 73.24693395941064, "lon": 102.04233747865952, "alt_km": 415.7699895589549, "timestamp": "2025-12-21T11:31:43.254906+00:00", "meta": {"OBJECT_NAME": "COSMOS 2251 DEB", "OBJECT_ID": "1993-036ADC", "EPOCH": "2025-12-20T19:40:06.346560", "MEAN_MOTION": 15.49417071, "ECCENTRICITY": 0.00187266, "INCLINATION": 73.9676, "RA_OF_ASC_NODE": 30.6958, "ARG_OF_PERICENTER": 329.8306, "MEAN_ANOMALY": 30.1826, "EPHEMERIS_TYPE": 0, "CLASSIFICATION_TYPE": "U", "NORAD_CAT_ID": 34907, "ELEMENT_SET_NO": 999, "REV_AT_EPOCH": 88098, "BSTAR": 0.0048777845, "MEAN_MOTION_DOT": 0.00279405, "MEAN_MOTION_DDOT": 0}, "tle": {"line1": "1 34907U 93036ADC 25354.81951790  .00279405  00000+0  48778-2 0  9995", "line2": "2 34907  73.9676  30.6958 0018726 329.8306  30.1826 15.49417071880981"}}, "geometry": {"type": "Point", "coordinates": [102.04233747865952, 73.24693395941064]}}, {"type": "Feature", "properties": {"norad_id": 34908, "name": "COSMOS 2251 DEB", "group": "cosmos-2251-debris", "lat": -67.32812383943127, "lon": -35.58255406795937, "alt_km": 776.1768760601308, "timestamp": "2025-12-21T11:31:43.254916+00:00", "meta": {"OBJECT_NAME": "COSMOS 2251 DEB", "OBJECT_ID": "1993-036ADD", "EPOCH": "2025-12-20T07:32:52.101024", "MEAN_MOTION": 14.37418877, "ECCENTRICITY": 0.00404085, "INCLINATION": 74.0578, "RA_OF_ASC_NODE": 9.7367, "ARG_OF_PERICENTER": 23.4856, "MEAN_ANOMALY": 352.7284, "EPHEMERIS_TYPE": 0, "CLASSIFICATION_TYPE": "U", "NORAD_CAT_ID": 34908, "ELEMENT_SET_NO": 999, "REV_AT_EPOCH": 87388, "BSTAR": 0.00037887067, "MEAN_MOTION_DOT": 1.117e-05, "MEAN_MOTION_DDOT": 0}, "tle": {"line1": "1 34908U 93036ADD 25354.31449191  .00001117  00000+0  37887-3 0  9991", "line2": "2 34908  74.0578   9.7367 0040408  23.4856 352.7284 14.37418877873888"}}, "geometry": {"type": "Point", "coordinates": [-35.58255406795937, -67.32812383943127]}}, {"type": "Feature", "properties": {"norad_id": 34909, "name": "COSMOS 2251 DEB", "group": "cosmos-2251-debris", "lat": -67.05289728420684, "lon": -77.99626145956648, "alt_km": 613.1454528744553, "timestamp": "2025-12-21T11:31:43.254926+00:00", "meta": {"OBJECT_NAME": "COSMOS 2251 DEB", "OBJECT_ID": "1993-036ADE", "EPOCH": "2025-12-21T03:53:25.651680", "MEAN_MOTION": 14.77897576, "ECCENTRICITY": 0.0083957, "INCLINATION": 74.0144, "RA_OF_ASC_NODE": 60.0133, "ARG_OF_PERICENTER": 193.8754, "MEAN_ANOMALY": 166.0115, "EPHEMERIS_TYPE": 0, "CLASSIFICATION_TYPE": "U", "NORAD_CAT_ID": 34909, "ELEMENT_SET_NO": 999, "REV_AT_EPOCH": 66976, "BSTAR": 0.0003388, "MEAN_MOTION_DOT": 2.55e-05, "MEAN_MOTION_DDOT": 0}, "tle": {"line1": "1 34909U 93036ADE 25355.16210245  .00002550  00000+0  33880-3 0  9993", "line2": "2 34909  74.0144  60.0133 0083957 193.8754 166.0115 14.77897576669764"}}, "geometry": {"type": "Point", "coordinates": [-77.99626145956648, -67.05289728420684]}}]}